H1 CPF 01  gfz 2021 12 27 01  8611 tandemx   
H2 1003001  6202 36605    2021 12 27 00 59 42 2022 01 01 00 00 42   120 1 1  0 0 0
H9
10 0 59578  59022.000000  0    5285736.923   1825057.186   4013565.236
10 0 59578  59142.000000  0    4803138.029   1458324.198   4707855.733
10 0 59578  59262.000000  0    4230037.353   1075342.076   5319283.887
10 0 59578  59382.000000  0    3576266.743    684308.869   5837123.020
10 0 59578  59502.000000  0    2853202.239    293372.246   6252302.639
10 0 59578  59622.000000  0    2073559.174    -89537.816   6557559.734
10 0 59578  59742.000000  0    1251165.042   -456867.648   6747560.310
10 0 59578  59862.000000  0     400711.167   -801587.765   6818988.533
10 0 59578  59982.000000  0    -462511.483  -1117326.450   6770599.995
10 0 59578  60102.000000  0   -1322886.767  -1398487.196   6603241.267
10 0 59578  60222.000000  0   -2164754.699  -1640347.954   6319834.712
10 0 59578  60342.000000  0   -2972694.187  -1839139.668   5925330.481
10 0 59578  60462.000000  0   -3731806.476  -1992105.294   5426628.343
10 0 59578  60582.000000  0   -4427995.255  -2097538.440   4832463.081
10 0 59578  60702.000000  0   -5048234.410  -2154799.373   4153256.145
10 0 59578  60822.000000  0   -5580818.820  -2164307.399   3400935.903
10 0 59578  60942.000000  0   -6015592.918  -2127510.198   2588730.450
10 0 59578  61062.000000  0   -6344153.513  -2046832.031   1730935.641
10 0 59578  61182.000000  0   -6560022.021  -1925600.972    842658.875
10 0 59578  61302.000000  0   -6658776.915  -1767955.618    -60454.686
10 0 59578  61422.000000  0   -6638146.456  -1578734.281   -962506.012
10 0 59578  61542.000000  0   -6498057.207  -1363349.696  -1847631.620
10 0 59578  61662.000000  0   -6240637.867  -1127652.966  -2700290.351
10 0 59578  61782.000000  0   -5870179.298   -877790.517  -3505541.816
10 0 59578  61902.000000  0   -5393052.276   -620056.743  -4249310.988
10 0 59578  62022.000000  0   -4817585.639   -360746.121  -4918633.299
10 0 59578  62142.000000  0   -4153908.307   -106009.232  -5501875.825
10 0 59578  62262.000000  0   -3413759.372    138284.102  -5988931.445
10 0 59578  62382.000000  0   -2610271.707    366672.082  -6371382.245
10 0 59578  62502.000000  0   -1757735.255    574215.520  -6642632.886
10 0 59578  62622.000000  0    -871342.361    756597.896  -6798013.830
10 0 59578  62742.000000  0      33079.533    910210.755  -6834852.112
10 0 59578  62862.000000  0     939342.943   1032221.788  -6752511.605
10 0 59578  62982.000000  0    1831182.745   1120625.145  -6552405.666
10 0 59578  63102.000000  0    2692542.612   1174274.404  -6237975.937
10 0 59578  63222.000000  0    3507859.453   1192896.587  -5814638.955
10 0 59578  63342.000000  0    4262341.012   1177086.891  -5289701.450
10 0 59578  63462.000000  0    4942234.913   1128284.603  -4672246.442
10 0 59578  63582.000000  0    5535084.782   1048730.699  -3972987.210
10 0 59578  63702.000000  0    6029966.402    941407.144  -3204090.867
10 0 59578  63822.000000  0    6417699.575    809958.889  -2378974.390
10 0 59578  63942.000000  0    6691031.596    658600.570  -1512074.662
10 0 59578  64062.000000  0    6844785.653    492009.032   -618594.828
10 0 59578  64182.000000  0    6875968.588    315204.457    285766.465
10 0 59578  64302.000000  0    6783836.805    133423.868   1185096.868
10 0 59578  64422.000000  0    6569917.938    -48011.685   2063558.810
10 0 59578  64542.000000  0    6237985.779   -223831.324   2905678.241
10 0 59578  64662.000000  0    5793989.010   -388947.329   3696625.524
10 0 59578  64782.000000  0    5245936.578   -538582.327   4422481.686
10 0 59578  64902.000000  0    4603745.302   -668388.291   5070486.959
10 0 59578  65022.000000  0    3879049.048   -774555.070   5629265.804
10 0 59578  65142.000000  0    3084977.751   -853903.874   6089022.876
10 0 59578  65262.000000  0    2235911.722   -903965.821   6441709.902
10 0 59578  65382.000000  0    1347216.155   -923043.447   6681160.917
10 0 59578  65502.000000  0     434958.770   -910254.278   6803195.220
10 0 59578  65622.000000  0    -484382.682   -865555.002   6805684.624
10 0 59578  65742.000000  0   -1394217.325   -789746.813   6688587.051
10 0 59578  65862.000000  0   -2278139.107   -684461.061   6453946.762
10 0 59578  65982.000000  0   -3120221.036   -552125.598   6105861.070
10 0 59578  66102.000000  0   -3905302.953   -395912.303   5650414.623
10 0 59578  66222.000000  0   -4619268.649   -219667.075   5095579.659
10 0 59578  66342.000000  0   -5249306.333    -27823.111   4451082.038
10 0 59578  66462.000000  0   -5784146.723    174700.679   3728234.992
10 0 59578  66582.000000  0   -6214273.436    382614.534   2939743.123
10 0 59578  66702.000000  0   -6532102.459    590383.568   2099480.170
10 0 59578  66822.000000  0   -6732125.465    792361.389   1222242.090
10 0 59578  66942.000000  0   -6811013.092    982927.750    323480.773
10 0 59578  67062.000000  0   -6767674.452   1156627.482   -580976.654
10 0 59578  67182.000000  0   -6603270.286   1308306.708  -1475215.936
10 0 59578  67302.000000  0   -6321180.978   1433242.358  -2343523.263
10 0 59578  67422.000000  0   -5926932.284   1527263.679  -3170668.484
10 0 59578  67542.000000  0   -5428076.390   1586860.595  -3942178.214
10 0 59578  67662.000000  0   -4834034.269   1609276.227  -4644589.308
10 0 59578  67782.000000  0   -4155905.316   1592582.773  -5265679.909
10 0 59578  67902.000000  0   -3406249.068   1535738.757  -5794674.129
10 0 59578  68022.000000  0   -2598845.434   1438626.827  -6222418.938
10 0 59578  68142.000000  0   -1748437.194   1302071.425  -6541531.910
10 0 59578  68262.000000  0    -870459.164   1127837.144  -6746516.674
10 0 59578  68382.000000  0      19238.428    918606.737  -6833846.547
10 0 59578  68502.000000  0     904668.667    677940.779  -6802018.248
10 0 59578  68622.000000  0    1769988.266    410218.322  -6651577.569
10 0 59578  68742.000000  0    2599775.539    120559.081  -6385110.687
10 0 59578  68862.000000  0    3379299.891   -185270.782  -6007204.803
10 0 59578  68982.000000  0    4094780.563   -500969.056  -5524376.452
10 0 59578  69102.000000  0    4733629.419   -819821.828  -4944970.158
10 0 59578  69222.000000  0    5284677.689  -1134840.747  -4279026.713
10 0 59578  69342.000000  0    5738379.377  -1438910.230  -3538119.344
10 0 59578  69462.000000  0    6086987.083  -1724941.856  -2735160.966
10 0 59578  69582.000000  0    6324696.273  -1986033.024  -1884184.373
10 0 59578  69702.000000  0    6447753.596  -2215625.971  -1000098.320
10 0 59578  69822.000000  0    6454526.051  -2407662.730    -98424.359
10 0 59578  69942.000000  0    6345528.820  -2556732.770    804981.021
10 0 59578  70062.000000  0    6123410.062  -2658208.594   1694213.314
10 0 59578  70182.000000  0    5792891.890  -2708366.185   2553609.611
10 0 59578  70302.000000  0    5360669.358  -2704487.122   3368033.141
10 0 59578  70422.000000  0    4835269.435  -2644938.657   4123147.241
10 0 59578  70542.000000  0    4226875.944  -2529230.467   4805670.583
10 0 59578  70662.000000  0    3547125.572  -2358048.456   5403613.142
10 0 59578  70782.000000  0    2808875.621  -2133263.197   5906486.240
10 0 59578  70902.000000  0    2025953.396  -1857912.754   6305481.700
10 0 59578  71022.000000  0    1212892.062  -1536161.995   6593620.499
10 0 59578  71142.000000  0     384657.298  -1173238.694   6765868.961
10 0 59578  71262.000000  0    -443629.683   -775347.193   6819220.882
10 0 59578  71382.000000  0   -1256967.501   -349561.651   6752745.739
10 0 59578  71502.000000  0   -2040744.972     96299.441   6567603.755
10 0 59578  71622.000000  0   -2781002.512    553816.321   6267027.104
10 0 59578  71742.000000  0   -3464681.064   1014125.942   5856267.563
10 0 59578  71862.000000  0   -4079855.125   1468092.362   5342510.897
10 0 59578  71982.000000  0   -4615946.279   1906487.034   4734757.559
10 0 59578  72102.000000  0   -5063912.249   2320176.208   4043670.006
10 0 59578  72222.000000  0   -5416406.824   2700311.283   3281388.842
10 0 59578  72342.000000  0   -5667907.491   3038517.369   2461321.056
10 0 59578  72462.000000  0   -5814808.914   3327076.646   1597903.646
10 0 59578  72582.000000  0   -5855479.258   3559102.444    706344.697
10 0 59578  72702.000000  0   -5790274.989   3728697.702   -197652.295
10 0 59578  72822.000000  0   -5621516.101   3831094.213  -1098173.135
10 0 59578  72942.000000  0   -5353422.297   3862770.281  -1979382.060
10 0 59578  73062.000000  0   -4992009.698   3821542.233  -2825809.775
10 0 59578  73182.000000  0   -4544951.796   3706627.699  -3622630.739
10 0 59578  73302.000000  0   -4021409.315   3518679.544  -4355924.794
10 0 59578  73422.000000  0   -3431835.100   3259791.066  -5012917.781
10 0 59578  73542.000000  0   -2787758.348   2933472.305  -5582197.276
10 0 59578  73662.000000  0   -2101555.606   2544599.815  -6053901.753
10 0 59578  73782.000000  0   -1386209.780   2099339.930  -6419881.690
10 0 59578  73902.000000  0    -655064.255   1605047.414  -6673827.900
10 0 59578  74022.000000  0      78422.644   1070143.096  -6811369.545
10 0 59578  74142.000000  0     800919.422    503971.635  -6830140.897
10 0 59578  74262.000000  0    1499458.218    -83358.283  -6729819.439
10 0 59578  74382.000000  0    2161662.812   -681150.766  -6512129.702
10 0 59578  74502.000000  0    2775962.531  -1278312.187  -6180816.838
10 0 59578  74622.000000  0    3331791.966  -1863551.811  -5741588.993
10 0 59578  74742.000000  0    3819772.505  -2425590.374  -5202029.992
10 0 59578  74862.000000  0    4231874.977  -2953376.345  -4571479.913
10 0 59578  74982.000000  0    4561556.246  -3436303.371  -3860883.174
10 0 59578  75102.000000  0    4803869.380  -3864424.087  -3082608.605
10 0 59578  75222.000000  0    4955545.858  -4228657.671  -2250241.484
10 0 59578  75342.000000  0    5015045.592  -4520985.186  -1378349.458
10 0 59578  75462.000000  0    4982573.496  -4734628.464   -482227.091
99
